[{"OBJECT_NAME":"STARLINK-2569","OBJECT_ID":"2021-036B","EPOCH":"2026-03-10T00:00:02.999808","MEAN_MOTION":15.23820477,"ECCENTRICITY":0.00017097,"INCLINATION":53.129,"RA_OF_ASC_NODE":9.5309,"ARG_OF_PERICENTER":96.8785,"MEAN_ANOMALY":250.7742,"EPHEMERIS_TYPE":0,"CLASSIFICATION_TYPE":"U","NORAD_CAT_ID":48277,"ELEMENT_SET_NO":999,"REV_AT_EPOCH":574,"BSTAR":-0.0006504466,"MEAN_MOTION_DOT":-0.00016175,"MEAN_MOTION_DDOT":0},{"OBJECT_NAME":"UMBRA-11","OBJECT_ID":"2025-276CL","EPOCH":"2026-03-09T18:06:23.760288","MEAN_MOTION":15.22304162,"ECCENTRICITY":0.00010845,"INCLINATION":97.4267,"RA_OF_ASC_NODE":144.2955,"ARG_OF_PERICENTER":341.4923,"MEAN_ANOMALY":18.6273,"EPHEMERIS_TYPE":0,"CLASSIFICATION_TYPE":"U","NORAD_CAT_ID":66748,"ELEMENT_SET_NO":999,"REV_AT_EPOCH":1534,"BSTAR":0.0010529412,"MEAN_MOTION_DOT":0.00024246,"MEAN_MOTION_DDOT":0}]
